[{"OBJECT_NAME":"SHIYAN-1 (SY-1)","OBJECT_ID":"2004-012A","EPOCH":"2026-03-09T17:40:34.066560","MEAN_MOTION":15.31043463,"ECCENTRICITY":0.00058726,"INCLINATION":97.8764,"RA_OF_ASC_NODE":140.5238,"ARG_OF_PERICENTER":23.6952,"MEAN_ANOMALY":336.4557,"EPHEMERIS_TYPE":0,"CLASSIFICATION_TYPE":"U","NORAD_CAT_ID":28220,"ELEMENT_SET_NO":999,"REV_AT_EPOCH":19586,"BSTAR":0.00054854449,"MEAN_MOTION_DOT":0.00016393,"MEAN_MOTION_DDOT":0},{"OBJECT_NAME":"STARLINK-31930","OBJECT_ID":"2024-150P","EPOCH":"2026-03-09T22:44:11.169600","MEAN_MOTION":15.30193593,"ECCENTRICITY":8.356e-5,"INCLINATION":53.1597,"RA_OF_ASC_NODE":305.6296,"ARG_OF_PERICENTER":107.3237,"MEAN_ANOMALY":252.7855,"EPHEMERIS_TYPE":0,"CLASSIFICATION_TYPE":"U","NORAD_CAT_ID":60596,"ELEMENT_SET_NO":999,"REV_AT_EPOCH":8800,"BSTAR":-0.00017136752,"MEAN_MOTION_DOT":-5.43e-5,"MEAN_MOTION_DDOT":0}]
